CCSDS_OMM_VERS = 2.0
CREATION_DATE  = 
ORIGINATOR     = 

OBJECT_NAME    = STARLINK-36489
OBJECT_ID      = 2026-002Z
CENTER_NAME    = EARTH
REF_FRAME      = TEME
TIME_SYSTEM    = UTC
MEAN_ELEMENT_THEORY = SGP/SGP4

EPOCH          = 2026-01-15T12:00:01.999296
MEAN_MOTION    = 15.87549689
ECCENTRICITY   = .0001852
INCLINATION    = 42.9981
RA_OF_ASC_NODE = 272.6113
ARG_OF_PERICENTER = 268.8917
MEAN_ANOMALY   = 131.5080

EPHEMERIS_TYPE = 0
CLASSIFICATION_TYPE = U
NORAD_CAT_ID   = 67328
ELEMENT_SET_NO = 999
REV_AT_EPOCH   = 302
BSTAR          = -.62259E-2
MEAN_MOTION_DOT = -.1513491E-1
MEAN_MOTION_DDOT = 0

CCSDS_OMM_VERS = 2.0
CREATION_DATE  = 
ORIGINATOR     = 

OBJECT_NAME    = STARLINK-36496
OBJECT_ID      = 2026-002AA
CENTER_NAME    = EARTH
REF_FRAME      = TEME
TIME_SYSTEM    = UTC
MEAN_ELEMENT_THEORY = SGP/SGP4

EPOCH          = 2026-01-15T12:00:01.999296
MEAN_MOTION    = 15.87560078
ECCENTRICITY   = .0001494
INCLINATION    = 42.9980
RA_OF_ASC_NODE = 272.5980
ARG_OF_PERICENTER = 272.6522
MEAN_ANOMALY   = 132.9550

EPHEMERIS_TYPE = 0
CLASSIFICATION_TYPE = U
NORAD_CAT_ID   = 67329
ELEMENT_SET_NO = 999
REV_AT_EPOCH   = 284
BSTAR          = -.62407E-2
MEAN_MOTION_DOT = -.151709E-1
MEAN_MOTION_DDOT = 0

CCSDS_OMM_VERS = 2.0
CREATION_DATE  = 
ORIGINATOR     = 

OBJECT_NAME    = STARLINK-36483
OBJECT_ID      = 2026-002AB
CENTER_NAME    = EARTH
REF_FRAME      = TEME
TIME_SYSTEM    = UTC
MEAN_ELEMENT_THEORY = SGP/SGP4

EPOCH          = 2026-01-15T12:00:01.999296
MEAN_MOTION    = 15.87549990
ECCENTRICITY   = .0001833
INCLINATION    = 42.9982
RA_OF_ASC_NODE = 272.5818
ARG_OF_PERICENTER = 263.1149
MEAN_ANOMALY   = 148.7711

EPHEMERIS_TYPE = 0
CLASSIFICATION_TYPE = U
NORAD_CAT_ID   = 67330
ELEMENT_SET_NO = 999
REV_AT_EPOCH   = 302
BSTAR          = -.65342E-2
MEAN_MOTION_DOT = -.1579277E-1
MEAN_MOTION_DDOT = 0

CCSDS_OMM_VERS = 2.0
CREATION_DATE  = 
ORIGINATOR     = 

OBJECT_NAME    = STARLINK-36494
OBJECT_ID      = 2026-002AC
CENTER_NAME    = EARTH
REF_FRAME      = TEME
TIME_SYSTEM    = UTC
MEAN_ELEMENT_THEORY = SGP/SGP4

EPOCH          = 2026-01-15T12:00:01.999296
MEAN_MOTION    = 15.87547488
ECCENTRICITY   = .0002173
INCLINATION    = 42.9981
RA_OF_ASC_NODE = 272.6041
ARG_OF_PERICENTER = 268.4208
MEAN_ANOMALY   = 134.7157

EPHEMERIS_TYPE = 0
CLASSIFICATION_TYPE = U
NORAD_CAT_ID   = 67331
ELEMENT_SET_NO = 999
REV_AT_EPOCH   = 302
BSTAR          = -.62074E-2
MEAN_MOTION_DOT = -.1509648E-1
MEAN_MOTION_DDOT = 0

CCSDS_OMM_VERS = 2.0
CREATION_DATE  = 
ORIGINATOR     = 

OBJECT_NAME    = STARLINK-36492
OBJECT_ID      = 2026-002AD
CENTER_NAME    = EARTH
REF_FRAME      = TEME
TIME_SYSTEM    = UTC
MEAN_ELEMENT_THEORY = SGP/SGP4

EPOCH          = 2026-01-15T12:00:01.999296
MEAN_MOTION    = 15.87518554
ECCENTRICITY   = .0001828
INCLINATION    = 42.9981
RA_OF_ASC_NODE = 272.5871
ARG_OF_PERICENTER = 268.7150
MEAN_ANOMALY   = 141.0447

EPHEMERIS_TYPE = 0
CLASSIFICATION_TYPE = U
NORAD_CAT_ID   = 67332
ELEMENT_SET_NO = 999
REV_AT_EPOCH   = 302
BSTAR          = -.64337E-2
MEAN_MOTION_DOT = -.155577E-1
MEAN_MOTION_DDOT = 0

CCSDS_OMM_VERS = 2.0
CREATION_DATE  = 
ORIGINATOR     = 

OBJECT_NAME    = STARLINK-36427
OBJECT_ID      = 2026-002AE
CENTER_NAME    = EARTH
REF_FRAME      = TEME
TIME_SYSTEM    = UTC
MEAN_ELEMENT_THEORY = SGP/SGP4

EPOCH          = 2026-01-15T12:00:01.999296
MEAN_MOTION    = 15.95198068
ECCENTRICITY   = .0001699
INCLINATION    = 42.9970
RA_OF_ASC_NODE = 272.2650
ARG_OF_PERICENTER = 269.0839
MEAN_ANOMALY   = 267.5002

EPHEMERIS_TYPE = 0
CLASSIFICATION_TYPE = U
NORAD_CAT_ID   = 67333
ELEMENT_SET_NO = 999
REV_AT_EPOCH   = 292
BSTAR          = -.38008E-2
MEAN_MOTION_DOT = -.1543596E-1
MEAN_MOTION_DDOT = .69033E-3

CCSDS_OMM_VERS = 2.0
CREATION_DATE  = 
ORIGINATOR     = 

OBJECT_NAME    = SHIJIAN-29B (SJ-29B)
OBJECT_ID      = 2025-315C
CENTER_NAME    = EARTH
REF_FRAME      = TEME
TIME_SYSTEM    = UTC
MEAN_ELEMENT_THEORY = SGP/SGP4

EPOCH          = 2026-01-15T12:32:48.984288
MEAN_MOTION    = 1.00271807
ECCENTRICITY   = .0000838
INCLINATION    = 3.0112
RA_OF_ASC_NODE = 99.1489
ARG_OF_PERICENTER = 329.1753
MEAN_ANOMALY   = 307.9439

EPHEMERIS_TYPE = 0
CLASSIFICATION_TYPE = U
NORAD_CAT_ID   = 67403
ELEMENT_SET_NO = 999
REV_AT_EPOCH   = 15
BSTAR          = 0
MEAN_MOTION_DOT = -.51E-6
MEAN_MOTION_DDOT = 0

CCSDS_OMM_VERS = 2.0
CREATION_DATE  = 
ORIGINATOR     = 

OBJECT_NAME    = YAOGAN-50 01
OBJECT_ID      = 2026-006A
CENTER_NAME    = EARTH
REF_FRAME      = TEME
TIME_SYSTEM    = UTC
MEAN_ELEMENT_THEORY = SGP/SGP4

EPOCH          = 2026-01-15T11:26:05.526240
MEAN_MOTION    = 14.21837328
ECCENTRICITY   = .0164921
INCLINATION    = 141.9985
RA_OF_ASC_NODE = 197.1649
ARG_OF_PERICENTER = 118.8774
MEAN_ANOMALY   = 242.8604

EPHEMERIS_TYPE = 0
CLASSIFICATION_TYPE = U
NORAD_CAT_ID   = 67433
ELEMENT_SET_NO = 999
REV_AT_EPOCH   = 27
BSTAR          = .23974E-3
MEAN_MOTION_DOT = .829E-5
MEAN_MOTION_DDOT = 0

CCSDS_OMM_VERS = 2.0
CREATION_DATE  = 
ORIGINATOR     = 

OBJECT_NAME    = CZ-6A R/B
OBJECT_ID      = 2026-006B
CENTER_NAME    = EARTH
REF_FRAME      = TEME
TIME_SYSTEM    = UTC
MEAN_ELEMENT_THEORY = SGP/SGP4

EPOCH          = 2026-01-13T17:12:57.362112
MEAN_MOTION    = 14.62247694
ECCENTRICITY   = .02017257
INCLINATION    = 142.0438
RA_OF_ASC_NODE = 188.1412
ARG_OF_PERICENTER = 82.0696
MEAN_ANOMALY   = 280.2897

EPHEMERIS_TYPE = 0
CLASSIFICATION_TYPE = U
NORAD_CAT_ID   = 67434
ELEMENT_SET_NO = 999
REV_AT_EPOCH   = 2
BSTAR          = .30805067E-4
MEAN_MOTION_DOT = .541E-5
MEAN_MOTION_DDOT = 0

CCSDS_OMM_VERS = 2.0
CREATION_DATE  = 
ORIGINATOR     = 

OBJECT_NAME    = HULIANWANG DIGUI 18A
OBJECT_ID      = 2026-007A
CENTER_NAME    = EARTH
REF_FRAME      = TEME
TIME_SYSTEM    = UTC
MEAN_ELEMENT_THEORY = SGP/SGP4

EPOCH          = 2026-01-14T01:07:54.134976
MEAN_MOTION    = 13.92612775
ECCENTRICITY   = .0008512
INCLINATION    = 50.0150
RA_OF_ASC_NODE = 292.8601
ARG_OF_PERICENTER = 274.9717
MEAN_ANOMALY   = 85.0211

EPHEMERIS_TYPE = 0
CLASSIFICATION_TYPE = U
NORAD_CAT_ID   = 67435
ELEMENT_SET_NO = 999
REV_AT_EPOCH   = 6
BSTAR          = .14297E-4
MEAN_MOTION_DOT = -.128E-5
MEAN_MOTION_DDOT = 0

CCSDS_OMM_VERS = 2.0
CREATION_DATE  = 
ORIGINATOR     = 

OBJECT_NAME    = HULIANWANG DIGUI 18B
OBJECT_ID      = 2026-007B
CENTER_NAME    = EARTH
REF_FRAME      = TEME
TIME_SYSTEM    = UTC
MEAN_ELEMENT_THEORY = SGP/SGP4

EPOCH          = 2026-01-13T21:41:15.785088
MEAN_MOTION    = 13.92454399
ECCENTRICITY   = .0009652
INCLINATION    = 50.0165
RA_OF_ASC_NODE = 293.4472
ARG_OF_PERICENTER = 261.3170
MEAN_ANOMALY   = 98.6636

EPHEMERIS_TYPE = 0
CLASSIFICATION_TYPE = U
NORAD_CAT_ID   = 67436
ELEMENT_SET_NO = 999
REV_AT_EPOCH   = 4
BSTAR          = .12827E-4
MEAN_MOTION_DOT = -.13E-5
MEAN_MOTION_DDOT = 0

CCSDS_OMM_VERS = 2.0
CREATION_DATE  = 
ORIGINATOR     = 

OBJECT_NAME    = HULIANWANG DIGUI 18C
OBJECT_ID      = 2026-007C
CENTER_NAME    = EARTH
REF_FRAME      = TEME
TIME_SYSTEM    = UTC
MEAN_ELEMENT_THEORY = SGP/SGP4

EPOCH          = 2026-01-15T04:41:23.991648
MEAN_MOTION    = 13.92511123
ECCENTRICITY   = .0008143
INCLINATION    = 50.0030
RA_OF_ASC_NODE = 288.2738
ARG_OF_PERICENTER = 271.3327
MEAN_ANOMALY   = 88.6639

EPHEMERIS_TYPE = 0
CLASSIFICATION_TYPE = U
NORAD_CAT_ID   = 67437
ELEMENT_SET_NO = 999
REV_AT_EPOCH   = 22
BSTAR          = .69628E-4
MEAN_MOTION_DOT = -.57E-6
MEAN_MOTION_DDOT = 0

