STARLINK-36489          
1 67328U 26002Z   26015.50002314 -.01513491  00000+0 -62259-2 0  9996
2 67328  42.9981 272.6113 0001852 268.8917 131.5080 15.87549689  3025
STARLINK-36496          
1 67329U 26002AA  26015.50002314 -.01517090  00000+0 -62407-2 0  9991
2 67329  42.9980 272.5980 0001494 272.6522 132.9550 15.87560078  2844
STARLINK-36483          
1 67330U 26002AB  26015.50002314 -.01579277  00000+0 -65342-2 0  9999
2 67330  42.9982 272.5818 0001833 263.1149 148.7711 15.87549990  3020
STARLINK-36494          
1 67331U 26002AC  26015.50002314 -.01509648  00000+0 -62074-2 0  9994
2 67331  42.9981 272.6041 0002173 268.4208 134.7157 15.87547488  3020
STARLINK-36492          
1 67332U 26002AD  26015.50002314 -.01555770  00000+0 -64337-2 0  9996
2 67332  42.9981 272.5871 0001828 268.7150 141.0447 15.87518554  3021
STARLINK-36427          
1 67333U 26002AE  26015.50002314 -.01543596  69033-3 -38008-2 0  9991
2 67333  42.9970 272.2650 0001699 269.0839 267.5002 15.95198068  2928
SHIJIAN-29B (SJ-29B)    
1 67403U 25315C   26015.52278917 -.00000051  00000+0  00000+0 0  9996
2 67403   3.0112  99.1489 0000838 329.1753 307.9439  1.00271807   155
YAOGAN-50 01            
1 67433U 26006A   26015.47645285  .00000829  00000+0  23974-3 0  9998
2 67433 141.9985 197.1649 0164921 118.8774 242.8604 14.21837328   272
CZ-6A R/B               
1 67434U 26006B   26013.71733058  .00000541  00000+0  30805-4 0  9993
2 67434 142.0438 188.1412 0201725  82.0696 280.2897 14.62247694    24
HULIANWANG DIGUI 18A    
1 67435U 26007A   26014.04715434 -.00000128  00000+0  14297-4 0  9999
2 67435  50.0150 292.8601 0008512 274.9717  85.0211 13.92612775    65
HULIANWANG DIGUI 18B    
1 67436U 26007B   26013.90365492 -.00000130  00000+0  12827-4 0  9999
2 67436  50.0165 293.4472 0009652 261.3170  98.6636 13.92454399    49
HULIANWANG DIGUI 18C    
1 67437U 26007C   26015.19541657 -.00000057  00000+0  69628-4 0  9991
2 67437  50.0030 288.2738 0008143 271.3327  88.6639 13.92511123   228
